{
  "type": "FeatureCollection",
  "features": [
    {
      "type": "Feature",
      "properties": {
        "norad_id": 34726,
        "name": "COSMOS 2251 DEB",
        "group": "cosmos-2251-debris",
        "lat": 71.94959893469145,
        "lon": 86.37099389240593,
        "alt_km": 659.2190533388348,
        "timestamp": "2025-12-22T09:53:37.795112+00:00",
        "meta_object_name": "COSMOS 2251 DEB",
        "meta_object_id": "1993-036YU",
        "meta_epoch": "2025-12-21T08:46:11.071488",
        "meta_mean_motion": 14.5951262,
        "meta_eccentricity": 0.00417411,
        "meta_inclination": 74.0281,
        "meta_ra_of_asc_node": 329.8686,
        "meta_arg_of_pericenter": 117.8308,
        "meta_mean_anomaly": 242.7097,
        "meta_ephemeris_type": 0,
        "meta_classification_type": "U",
        "meta_norad_cat_id": 34726,
        "meta_element_set_no": 999,
        "meta_rev_at_epoch": 88628,
        "meta_bstar": 0.0003308409,
        "meta_mean_motion_dot": 1.56e-05,
        "meta_mean_motion_ddot": 0,
        "tle_line1": "1 34726U 93036YU  25355.36540592  .00001560  00000+0  33084-3 0  9999",
        "tle_line2": "2 34726  74.0281 329.8686 0041741 117.8308 242.7097 14.59512620886281"
      },
      "geometry": {
        "type": "Point",
        "coordinates": [
          86.37099389240593,
          71.94959893469145
        ]
      }
    },
    {
      "type": "Feature",
      "properties": {
        "norad_id": 34728,
        "name": "COSMOS 2251 DEB",
        "group": "cosmos-2251-debris",
        "lat": 12.114200122818438,
        "lon": -123.50322820588468,
        "alt_km": 630.970609566577,
        "timestamp": "2025-12-22T09:53:37.795121+00:00",
        "meta_object_name": "COSMOS 2251 DEB",
        "meta_object_id": "1993-036YW",
        "meta_epoch": "2025-12-20T02:20:18.568032",
        "meta_mean_motion": 14.70905998,
        "meta_eccentricity": 0.00414013,
        "meta_inclination": 74.0163,
        "meta_ra_of_asc_node": 237.4676,
        "meta_arg_of_pericenter": 33.08,
        "meta_mean_anomaly": 327.2947,
        "meta_ephemeris_type": 0,
        "meta_classification_type": "U",
        "meta_norad_cat_id": 34728,
        "meta_element_set_no": 999,
        "meta_rev_at_epoch": 88908,
        "meta_bstar": 0.00043281985,
        "meta_mean_motion_dot": 2.653e-05,
        "meta_mean_motion_ddot": 0,
        "tle_line1": "1 34728U 93036YW  25354.09743713  .00002653  00000+0  43282-3 0  9995",
        "tle_line2": "2 34728  74.0163 237.4676 0041401  33.0800 327.2947 14.70905998889085"
      },
      "geometry": {
        "type": "Point",
        "coordinates": [
          -123.50322820588468,
          12.114200122818438
        ]
      }
    },
    {
      "type": "Feature",
      "properties": {
        "norad_id": 34729,
        "name": "COSMOS 2251 DEB",
        "group": "cosmos-2251-debris",
        "lat": 73.34381752766754,
        "lon": 52.59481963984761,
        "alt_km": 604.1411021843223,
        "timestamp": "2025-12-22T09:53:37.795131+00:00",
        "meta_object_name": "COSMOS 2251 DEB",
        "meta_object_id": "1993-036YX",
        "meta_epoch": "2025-12-21T03:19:22.028160",
        "meta_mean_motion": 14.83009492,
        "meta_eccentricity": 0.00118737,
        "meta_inclination": 74.0178,
        "meta_ra_of_asc_node": 341.7906,
        "meta_arg_of_pericenter": 95.888,
        "meta_mean_anomaly": 31.6413,
        "meta_ephemeris_type": 0,
        "meta_classification_type": "U",
        "meta_norad_cat_id": 34729,
        "meta_element_set_no": 999,
        "meta_rev_at_epoch": 88582,
        "meta_bstar": 0.0012387891,
        "meta_mean_motion_dot": 0.00010064,
        "meta_mean_motion_ddot": 0,
        "tle_line1": "1 34729U 93036YX  25355.13844940  .00010064  00000+0  12388-2 0  9993",
        "tle_line2": "2 34729  74.0178 341.7906 0011873  95.8880  31.6413 14.83009492885821"
      },
      "geometry": {
        "type": "Point",
        "coordinates": [
          52.59481963984761,
          73.34381752766754
        ]
      }
    },
    {
      "type": "Feature",
      "properties": {
        "norad_id": 34732,
        "name": "COSMOS 2251 DEB",
        "group": "cosmos-2251-debris",
        "lat": 27.18372036452595,
        "lon": -113.335301839179,
        "alt_km": 724.400601485785,
        "timestamp": "2025-12-22T09:53:37.795141+00:00",
        "meta_object_name": "COSMOS 2251 DEB",
        "meta_object_id": "1993-036ZA",
        "meta_epoch": "2025-12-21T05:08:15.253152",
        "meta_mean_motion": 14.47309229,
        "meta_eccentricity": 0.00402182,
        "meta_inclination": 74.0456,
        "meta_ra_of_asc_node": 77.3511,
        "meta_arg_of_pericenter": 226.7756,
        "meta_mean_anomaly": 164.853,
        "meta_ephemeris_type": 0,
        "meta_classification_type": "U",
        "meta_norad_cat_id": 34732,
        "meta_element_set_no": 999,
        "meta_rev_at_epoch": 88266,
        "meta_bstar": 9.8245865e-05,
        "meta_mean_motion_dot": 3.35e-06,
        "meta_mean_motion_ddot": 0,
        "tle_line1": "1 34732U 93036ZA  25355.21406543  .00000335  00000+0  98246-4 0  9998",
        "tle_line2": "2 34732  74.0456  77.3511 0040218 226.7756 164.8530 14.47309229882669"
      },
      "geometry": {
        "type": "Point",
        "coordinates": [
          -113.335301839179,
          27.18372036452595
        ]
      }
    },
    {
      "type": "Feature",
      "properties": {
        "norad_id": 34736,
        "name": "COSMOS 2251 DEB",
        "group": "cosmos-2251-debris",
        "lat": -45.886032423353726,
        "lon": -2.313651860452449,
        "alt_km": 398.0857898591985,
        "timestamp": "2025-12-22T09:53:37.795151+00:00",
        "meta_object_name": "COSMOS 2251 DEB",
        "meta_object_id": "1993-036ZE",
        "meta_epoch": "2025-12-22T02:23:00.141216",
        "meta_mean_motion": 15.55489726,
        "meta_eccentricity": 0.0013425,
        "meta_inclination": 73.9983,
        "meta_ra_of_asc_node": 15.5975,
        "meta_arg_of_pericenter": 339.0956,
        "meta_mean_anomaly": 20.9709,
        "meta_ephemeris_type": 0,
        "meta_classification_type": "U",
        "meta_norad_cat_id": 34736,
        "meta_element_set_no": 999,
        "meta_rev_at_epoch": 88593,
        "meta_bstar": 0.0073524,
        "meta_mean_motion_dot": 0.00538944,
        "meta_mean_motion_ddot": 0,
        "tle_line1": "1 34736U 93036ZE  25356.09930719  .00538944  00000+0  73524-2 0  9998",
        "tle_line2": "2 34736  73.9983  15.5975 0013425 339.0956  20.9709 15.55489726885938"
      },
      "geometry": {
        "type": "Point",
        "coordinates": [
          -2.313651860452449,
          -45.886032423353726
        ]
      }
    },
    {
      "type": "Feature",
      "properties": {
        "norad_id": 34738,
        "name": "COSMOS 2251 DEB",
        "group": "cosmos-2251-debris",
        "lat": 29.331935431367988,
        "lon": -64.08068608528026,
        "alt_km": 752.8966610996304,
        "timestamp": "2025-12-22T09:53:37.795161+00:00",
        "meta_object_name": "COSMOS 2251 DEB",
        "meta_object_id": "1993-036ZG",
        "meta_epoch": "2025-12-22T03:22:56.180928",
        "meta_mean_motion": 14.46323127,
        "meta_eccentricity": 0.0047552,
        "meta_inclination": 74.0154,
        "meta_ra_of_asc_node": 125.695,
        "meta_arg_of_pericenter": 270.2285,
        "meta_mean_anomaly": 267.4106,
        "meta_ephemeris_type": 0,
        "meta_classification_type": "U",
        "meta_norad_cat_id": 34738,
        "meta_element_set_no": 999,
        "meta_rev_at_epoch": 87994,
        "meta_bstar": 0.00029813,
        "meta_mean_motion_dot": 1.056e-05,
        "meta_mean_motion_ddot": 0,
        "tle_line1": "1 34738U 93036ZG  25356.14092802  .00001056  00000+0  29813-3 0  9990",
        "tle_line2": "2 34738  74.0154 125.6950 0047552 270.2285 267.4106 14.46323127879941"
      },
      "geometry": {
        "type": "Point",
        "coordinates": [
          -64.08068608528026,
          29.331935431367988
        ]
      }
    },
    {
      "type": "Feature",
      "properties": {
        "norad_id": 34750,
        "name": "COSMOS 2251 DEB",
        "group": "cosmos-2251-debris",
        "lat": 63.92817235436721,
        "lon": -32.27950400474559,
        "alt_km": 656.891399838295,
        "timestamp": "2025-12-22T09:53:37.795171+00:00",
        "meta_object_name": "COSMOS 2251 DEB",
        "meta_object_id": "1993-036ZU",
        "meta_epoch": "2025-12-21T12:09:31.852224",
        "meta_mean_motion": 14.613988,
        "meta_eccentricity": 0.003846,
        "meta_inclination": 74.1061,
        "meta_ra_of_asc_node": 185.0597,
        "meta_arg_of_pericenter": 135.1733,
        "meta_mean_anomaly": 253.3274,
        "meta_ephemeris_type": 0,
        "meta_classification_type": "U",
        "meta_norad_cat_id": 34750,
        "meta_element_set_no": 999,
        "meta_rev_at_epoch": 88359,
        "meta_bstar": 0.00079183855,
        "meta_mean_motion_dot": 3.932e-05,
        "meta_mean_motion_ddot": 0,
        "tle_line1": "1 34750U 93036ZU  25355.50661866  .00003932  00000+0  79184-3 0  9996",
        "tle_line2": "2 34750  74.1061 185.0597 0038460 135.1733 253.3274 14.61398800883598"
      },
      "geometry": {
        "type": "Point",
        "coordinates": [
          -32.27950400474559,
          63.92817235436721
        ]
      }
    }
  ]
}